start=new Date('2022-10-26T00:00:00.000Z').valueOf();
sats=[{"OBJECT_ID":"2022-084AK","MEAN_ELEMENT_THEORY":"SGP4","FILE":"3633327","EPOCH":"2022-10-25T17:36:55.248192","REV_AT_EPOCH":"1463","CLASSIFICATION_TYPE":"U","OBJECT_NAME":"STARLINK-4381","DECAY_DATE":null,"MEAN_ANOMALY":"271.7089","INCLINATION":"97.6546","TLE_LINE2":"2 53222  97.6546 358.1398 0002336  88.4403 271.7089 15.01253909 14634","PERIOD":"95.920","ARG_OF_PERICENTER":"88.4403","ELEMENT_SET_NO":"999","TIME_SYSTEM":"UTC","MEAN_MOTION_DOT":"-0.00001179","EPHEMERIS_TYPE":"0","OBJECT_TYPE":"PAYLOAD","ECCENTRICITY":"0.00023360","MEAN_MOTION_DDOT":"0.0000000000000","PERIAPSIS":"561.409","APOAPSIS":"564.652","REF_FRAME":"TEME","GP_ID":"216157329","BSTAR":"-0.00008718700000","RCS_SIZE":"LARGE","RA_OF_ASC_NODE":"358.1398","COUNTRY_CODE":"US","SEMIMAJOR_AXIS":"6941.166","NORAD_CAT_ID":"53222","LAUNCH_DATE":"2022-07-22","SITE":"AFWTR","TLE_LINE1":"1 53222U 22084AK  22298.73397278 -.00001179  00000-0 -87187-4 0  9994","MEAN_MOTION":"15.01253909","CENTER_NAME":"EARTH"},{"RCS_SIZE":"LARGE","BSTAR":"-0.00007078900000","PERIAPSIS":"561.526","GP_ID":"216157943","REF_FRAME":"TEME","APOAPSIS":"564.564","ECCENTRICITY":"0.00021890","OBJECT_TYPE":"PAYLOAD","EPHEMERIS_TYPE":"0","MEAN_MOTION_DDOT":"0.0000000000000","MEAN_MOTION":"15.01249269","CENTER_NAME":"EARTH","SITE":"AFWTR","TLE_LINE1":"1 53223U 22084AL  22298.59326690 -.00000968  00000-0 -70789-4 0  9994","LAUNCH_DATE":"2022-07-22","NORAD_CAT_ID":"53223","COUNTRY_CODE":"US","RA_OF_ASC_NODE":"358.0094","SEMIMAJOR_AXIS":"6941.180","CLASSIFICATION_TYPE":"U","OBJECT_NAME":"STARLINK-4354","DECAY_DATE":null,"EPOCH":"2022-10-25T14:14:18.260160","REV_AT_EPOCH":"1461","MEAN_ELEMENT_THEORY":"SGP4","FILE":"3633327","OBJECT_ID":"2022-084AL","MEAN_MOTION_DOT":"-0.00000968","TIME_SYSTEM":"UTC","ELEMENT_SET_NO":"999","ARG_OF_PERICENTER":"81.8306","INCLINATION":"97.6566","MEAN_ANOMALY":"278.3166","PERIOD":"95.920","TLE_LINE2":"2 53223  97.6566 358.0094 0002189  81.8306 278.3166 15.01249269 14615"},{"OBJECT_ID":"2022-084AM","MEAN_ELEMENT_THEORY":"SGP4","FILE":"3633327","EPOCH":"2022-10-25T17:34:15.541248","REV_AT_EPOCH":"1463","CLASSIFICATION_TYPE":"U","OBJECT_NAME":"STARLINK-4356","DECAY_DATE":null,"INCLINATION":"97.6548","MEAN_ANOMALY":"251.7147","PERIOD":"95.920","TLE_LINE2":"2 53224  97.6548 358.1406 0001549 108.4246 251.7147 15.01252607 14638","ARG_OF_PERICENTER":"108.4246","TIME_SYSTEM":"UTC","ELEMENT_SET_NO":"999","MEAN_MOTION_DOT":"-0.00002660","ECCENTRICITY":"0.00015490","EPHEMERIS_TYPE":"0","OBJECT_TYPE":"PAYLOAD","MEAN_MOTION_DDOT":"0.0000000000000","PERIAPSIS":"561.959","GP_ID":"216157486","REF_FRAME":"TEME","APOAPSIS":"564.110","BSTAR":"-0.00020264000000","RCS_SIZE":"LARGE","COUNTRY_CODE":"US","RA_OF_ASC_NODE":"358.1406","SEMIMAJOR_AXIS":"6941.170","LAUNCH_DATE":"2022-07-22","NORAD_CAT_ID":"53224","MEAN_MOTION":"15.01252607","CENTER_NAME":"EARTH","TLE_LINE1":"1 53224U 22084AM  22298.73212432 -.00002660  00000-0 -20264-3 0  9992","SITE":"AFWTR"},{"SEMIMAJOR_AXIS":"6941.188","RA_OF_ASC_NODE":"358.0078","COUNTRY_CODE":"US","SITE":"AFWTR","TLE_LINE1":"1 53225U 22084AN  22298.58955598 -.00000906  00000-0 -65933-4 0  9997","MEAN_MOTION":"15.01246558","CENTER_NAME":"EARTH","NORAD_CAT_ID":"53225","LAUNCH_DATE":"2022-07-22","MEAN_MOTION_DDOT":"0.0000000000000","OBJECT_TYPE":"PAYLOAD","EPHEMERIS_TYPE":"0","ECCENTRICITY":"0.00019920","RCS_SIZE":"LARGE","BSTAR":"-0.00006593300000","APOAPSIS":"564.436","GP_ID":"216157154","REF_FRAME":"TEME","PERIAPSIS":"561.671","ARG_OF_PERICENTER":"64.9151","TLE_LINE2":"2 53225  97.6575 358.0078 0001992  64.9151 295.2280 15.01246558 14613","PERIOD":"95.920","MEAN_ANOMALY":"295.2280","INCLINATION":"97.6575","MEAN_MOTION_DOT":"-0.00000906","ELEMENT_SET_NO":"999","TIME_SYSTEM":"UTC","FILE":"3633327","MEAN_ELEMENT_THEORY":"SGP4","OBJECT_ID":"2022-084AN","OBJECT_NAME":"STARLINK-4358","DECAY_DATE":null,"CLASSIFICATION_TYPE":"U","REV_AT_EPOCH":"1461","EPOCH":"2022-10-25T14:08:57.636672"},{"CLASSIFICATION_TYPE":"U","DECAY_DATE":null,"OBJECT_NAME":"STARLINK-4359","EPOCH":"2022-10-25T03:02:45.862080","REV_AT_EPOCH":"1454","MEAN_ELEMENT_THEORY":"SGP4","FILE":"3633075","OBJECT_ID":"2022-084AP","MEAN_MOTION_DOT":"0.00000543","TIME_SYSTEM":"UTC","ELEMENT_SET_NO":"999","ARG_OF_PERICENTER":"80.4331","INCLINATION":"97.6567","MEAN_ANOMALY":"279.7078","PERIOD":"95.919","TLE_LINE2":"2 53226  97.6567 357.5498 0001630  80.4331 279.7078 15.01269251 14546","RCS_SIZE":"LARGE","BSTAR":"0.00004682600000","PERIAPSIS":"561.852","GP_ID":"216125532","REF_FRAME":"TEME","APOAPSIS":"564.115","ECCENTRICITY":"0.00016300","EPHEMERIS_TYPE":"0","OBJECT_TYPE":"PAYLOAD","MEAN_MOTION_DDOT":"0.0000000000000","MEAN_MOTION":"15.01269251","CENTER_NAME":"EARTH","TLE_LINE1":"1 53226U 22084AP  22298.12691970  .00000543  00000-0  46826-4 0  9994","SITE":"AFWTR","LAUNCH_DATE":"2022-07-22","NORAD_CAT_ID":"53226","COUNTRY_CODE":"US","RA_OF_ASC_NODE":"357.5498","SEMIMAJOR_AXIS":"6941.118"},{"SEMIMAJOR_AXIS":"6941.154","RA_OF_ASC_NODE":"358.2131","COUNTRY_CODE":"US","TLE_LINE1":"1 53227U 22084AQ  22298.78603610 -.00002813  00000-0 -21448-3 0  9997","SITE":"AFWTR","CENTER_NAME":"EARTH","MEAN_MOTION":"15.01257803","NORAD_CAT_ID":"53227","LAUNCH_DATE":"2022-07-22","MEAN_MOTION_DDOT":"0.0000000000000","OBJECT_TYPE":"PAYLOAD","EPHEMERIS_TYPE":"0","ECCENTRICITY":"0.00018580","BSTAR":"-0.00021448000000","RCS_SIZE":"LARGE","APOAPSIS":"564.308","GP_ID":"216157662","REF_FRAME":"TEME","PERIAPSIS":"561.729","ARG_OF_PERICENTER":"59.3621","TLE_LINE2":"2 53227  97.6581 358.2131 0001858  59.3621 300.7786 15.01257803 14646","PERIOD":"95.920","MEAN_ANOMALY":"300.7786","INCLINATION":"97.6581","MEAN_MOTION_DOT":"-0.00002813","ELEMENT_SET_NO":"999","TIME_SYSTEM":"UTC","FILE":"3633327","MEAN_ELEMENT_THEORY":"SGP4","OBJECT_ID":"2022-084AQ","DECAY_DATE":null,"OBJECT_NAME":"STARLINK-4366","CLASSIFICATION_TYPE":"U","REV_AT_EPOCH":"1464","EPOCH":"2022-10-25T18:51:53.519040"},{"RCS_SIZE":"LARGE","BSTAR":"-0.00005171000000","PERIAPSIS":"561.512","REF_FRAME":"TEME","GP_ID":"216157768","APOAPSIS":"564.549","ECCENTRICITY":"0.00021880","OBJECT_TYPE":"PAYLOAD","EPHEMERIS_TYPE":"0","MEAN_MOTION_DDOT":"0.0000000000000","MEAN_MOTION":"15.01254007","CENTER_NAME":"EARTH","SITE":"AFWTR","TLE_LINE1":"1 53228U 22084AR  22298.59141096 -.00000723  00000-0 -51710-4 0  9996","LAUNCH_DATE":"2022-07-22","NORAD_CAT_ID":"53228","COUNTRY_CODE":"US","RA_OF_ASC_NODE":"358.0108","SEMIMAJOR_AXIS":"6941.165","CLASSIFICATION_TYPE":"U","DECAY_DATE":null,"OBJECT_NAME":"STARLINK-4365","EPOCH":"2022-10-25T14:11:37.906944","REV_AT_EPOCH":"1461","MEAN_ELEMENT_THEORY":"SGP4","FILE":"3633327","OBJECT_ID":"2022-084AR","MEAN_MOTION_DOT":"-0.00000723","TIME_SYSTEM":"UTC","ELEMENT_SET_NO":"999","ARG_OF_PERICENTER":"66.7251","INCLINATION":"97.6579","MEAN_ANOMALY":"293.4203","PERIOD":"95.920","TLE_LINE2":"2 53228  97.6579 358.0108 0002188  66.7251 293.4203 15.01254007 14616"},{"EPOCH":"2022-10-25T10:51:40.565376","REV_AT_EPOCH":"1459","CLASSIFICATION_TYPE":"U","DECAY_DATE":null,"OBJECT_NAME":"STARLINK-4367","OBJECT_ID":"2022-084AS","MEAN_ELEMENT_THEORY":"SGP4","FILE":"3633075","ELEMENT_SET_NO":"999","TIME_SYSTEM":"UTC","MEAN_MOTION_DOT":"-0.00002482","MEAN_ANOMALY":"288.9696","INCLINATION":"97.6596","TLE_LINE2":"2 53229  97.6596 357.8830 0001960  71.1741 288.9696 15.01243449 14596","PERIOD":"95.920","ARG_OF_PERICENTER":"71.1741","PERIAPSIS":"561.702","APOAPSIS":"564.423","REF_FRAME":"TEME","GP_ID":"216126426","RCS_SIZE":"LARGE","BSTAR":"-0.00018881000000","OBJECT_TYPE":"PAYLOAD","EPHEMERIS_TYPE":"0","ECCENTRICITY":"0.00019600","MEAN_MOTION_DDOT":"0.0000000000000","NORAD_CAT_ID":"53229","LAUNCH_DATE":"2022-07-22","TLE_LINE1":"1 53229U 22084AS  22298.45255284 -.00002482  00000-0 -18881-3 0  9992","SITE":"AFWTR","MEAN_MOTION":"15.01243449","CENTER_NAME":"EARTH","RA_OF_ASC_NODE":"357.8830","COUNTRY_CODE":"US","SEMIMAJOR_AXIS":"6941.198"},{"INCLINATION":"97.6574","MEAN_ANOMALY":"282.6129","PERIOD":"95.920","TLE_LINE2":"2 53230  97.6574 358.2038 0002046  77.5324 282.6129 15.01245969 14649","ARG_OF_PERICENTER":"77.5324","TIME_SYSTEM":"UTC","ELEMENT_SET_NO":"999","MEAN_MOTION_DOT":"-0.00000914","OBJECT_ID":"2022-084AT","MEAN_ELEMENT_THEORY":"SGP4","FILE":"3633327","EPOCH":"2022-10-25T18:54:14.852160","REV_AT_EPOCH":"1464","CLASSIFICATION_TYPE":"U","DECAY_DATE":null,"OBJECT_NAME":"STARLINK-4364","COUNTRY_CODE":"US","RA_OF_ASC_NODE":"358.2038","SEMIMAJOR_AXIS":"6941.190","LAUNCH_DATE":"2022-07-22","NORAD_CAT_ID":"53230","MEAN_MOTION":"15.01245969","CENTER_NAME":"EARTH","TLE_LINE1":"1 53230U 22084AT  22298.78767190 -.00000914  00000-0 -66563-4 0  9993","SITE":"AFWTR","ECCENTRICITY":"0.00020460","EPHEMERIS_TYPE":"0","OBJECT_TYPE":"PAYLOAD","MEAN_MOTION_DDOT":"0.0000000000000","PERIAPSIS":"561.635","GP_ID":"216157330","REF_FRAME":"TEME","APOAPSIS":"564.475","BSTAR":"-0.00006656300000","RCS_SIZE":"LARGE"},{"ECCENTRICITY":"0.00025140","OBJECT_TYPE":"PAYLOAD","EPHEMERIS_TYPE":"0","MEAN_MOTION_DDOT":"0.0000000000000","PERIAPSIS":"561.303","GP_ID":"216157944","REF_FRAME":"TEME","APOAPSIS":"564.793","BSTAR":"-0.00010529000000","RCS_SIZE":"LARGE","COUNTRY_CODE":"US","RA_OF_ASC_NODE":"358.2060","SEMIMAJOR_AXIS":"6941.183","LAUNCH_DATE":"2022-07-22","NORAD_CAT_ID":"53231","MEAN_MOTION":"15.01248308","CENTER_NAME":"EARTH","SITE":"AFWTR","TLE_LINE1":"1 53231U 22084AU  22298.78211712 -.00001411  00000-0 -10529-3 0  9991","OBJECT_ID":"2022-084AU","MEAN_ELEMENT_THEORY":"SGP4","FILE":"3633327","EPOCH":"2022-10-25T18:46:14.919168","REV_AT_EPOCH":"1464","CLASSIFICATION_TYPE":"U","DECAY_DATE":null,"OBJECT_NAME":"STARLINK-4370","MEAN_ANOMALY":"297.3222","INCLINATION":"97.6575","PERIOD":"95.920","TLE_LINE2":"2 53231  97.6575 358.2060 0002514  62.8258 297.3222 15.01248308 14646","ARG_OF_PERICENTER":"62.8258","TIME_SYSTEM":"UTC","ELEMENT_SET_NO":"999","MEAN_MOTION_DOT":"-0.00001411"}];
